CCSDS_OMM_VERS = 2.0
CREATION_DATE  = 
ORIGINATOR     = 

OBJECT_NAME    = COSMOS 2228
OBJECT_ID      = 1992-094A
CENTER_NAME    = EARTH
REF_FRAME      = TEME
TIME_SYSTEM    = UTC
MEAN_ELEMENT_THEORY = SGP/SGP4

EPOCH          = 2025-11-25T12:11:37.382784
MEAN_MOTION    = 14.96611384
ECCENTRICITY   = .0016472
INCLINATION    = 82.5177
RA_OF_ASC_NODE = 337.0227
ARG_OF_PERICENTER = 295.1073
MEAN_ANOMALY   = 64.8440

EPHEMERIS_TYPE = 0
CLASSIFICATION_TYPE = U
NORAD_CAT_ID   = 22286
ELEMENT_SET_NO = 999
REV_AT_EPOCH   = 76047
BSTAR          = .27659E-3
MEAN_MOTION_DOT = .3183E-4
MEAN_MOTION_DDOT = 0

CCSDS_OMM_VERS = 2.0
CREATION_DATE  = 
ORIGINATOR     = 

OBJECT_NAME    = SL-16 R/B
OBJECT_ID      = 1993-016B
CENTER_NAME    = EARTH
REF_FRAME      = TEME
TIME_SYSTEM    = UTC
MEAN_ELEMENT_THEORY = SGP/SGP4

EPOCH          = 2025-11-25T11:01:57.707616
MEAN_MOTION    = 14.15288698
ECCENTRICITY   = .0008278
INCLINATION    = 71.0087
RA_OF_ASC_NODE = 74.0944
ARG_OF_PERICENTER = 129.9361
MEAN_ANOMALY   = 230.2491

EPHEMERIS_TYPE = 0
CLASSIFICATION_TYPE = U
NORAD_CAT_ID   = 22566
ELEMENT_SET_NO = 999
REV_AT_EPOCH   = 68742
BSTAR          = .70686E-4
MEAN_MOTION_DOT = .9E-6
MEAN_MOTION_DDOT = 0

CCSDS_OMM_VERS = 2.0
CREATION_DATE  = 
ORIGINATOR     = 

OBJECT_NAME    = COSMOS 2242
OBJECT_ID      = 1993-024A
CENTER_NAME    = EARTH
REF_FRAME      = TEME
TIME_SYSTEM    = UTC
MEAN_ELEMENT_THEORY = SGP/SGP4

EPOCH          = 2025-11-25T09:06:35.277408
MEAN_MOTION    = 14.96001896
ECCENTRICITY   = .0014941
INCLINATION    = 82.5199
RA_OF_ASC_NODE = 6.4367
ARG_OF_PERICENTER = 298.6202
MEAN_ANOMALY   = 61.3516

EPHEMERIS_TYPE = 0
CLASSIFICATION_TYPE = U
NORAD_CAT_ID   = 22626
ELEMENT_SET_NO = 999
REV_AT_EPOCH   = 76479
BSTAR          = .24747E-3
MEAN_MOTION_DOT = .2806E-4
MEAN_MOTION_DDOT = 0

CCSDS_OMM_VERS = 2.0
CREATION_DATE  = 
ORIGINATOR     = 

OBJECT_NAME    = SL-16 R/B
OBJECT_ID      = 1993-059B
CENTER_NAME    = EARTH
REF_FRAME      = TEME
TIME_SYSTEM    = UTC
MEAN_ELEMENT_THEORY = SGP/SGP4

EPOCH          = 2025-11-25T10:32:52.697184
MEAN_MOTION    = 14.17208034
ECCENTRICITY   = .0016961
INCLINATION    = 70.9897
RA_OF_ASC_NODE = 230.9658
ARG_OF_PERICENTER = 1.4142
MEAN_ANOMALY   = 358.7027

EPHEMERIS_TYPE = 0
CLASSIFICATION_TYPE = U
NORAD_CAT_ID   = 22803
ELEMENT_SET_NO = 999
REV_AT_EPOCH   = 66476
BSTAR          = -.4931E-4
MEAN_MOTION_DOT = -.148E-5
MEAN_MOTION_DDOT = 0

CCSDS_OMM_VERS = 2.0
CREATION_DATE  = 
ORIGINATOR     = 

OBJECT_NAME    = ARIANE 40 R/B
OBJECT_ID      = 1993-061H
CENTER_NAME    = EARTH
REF_FRAME      = TEME
TIME_SYSTEM    = UTC
MEAN_ELEMENT_THEORY = SGP/SGP4

EPOCH          = 2025-11-25T10:32:20.531328
MEAN_MOTION    = 14.32784926
ECCENTRICITY   = .0009922
INCLINATION    = 98.5096
RA_OF_ASC_NODE = 35.2823
ARG_OF_PERICENTER = 228.5160
MEAN_ANOMALY   = 131.5173

EPHEMERIS_TYPE = 0
CLASSIFICATION_TYPE = U
NORAD_CAT_ID   = 22830
ELEMENT_SET_NO = 999
REV_AT_EPOCH   = 67917
BSTAR          = .12757E-3
MEAN_MOTION_DOT = .304E-5
MEAN_MOTION_DDOT = 0

CCSDS_OMM_VERS = 2.0
CREATION_DATE  = 
ORIGINATOR     = 

OBJECT_NAME    = COSMOS 2278
OBJECT_ID      = 1994-023A
CENTER_NAME    = EARTH
REF_FRAME      = TEME
TIME_SYSTEM    = UTC
MEAN_ELEMENT_THEORY = SGP/SGP4

EPOCH          = 2025-11-25T11:47:16.082304
MEAN_MOTION    = 14.14348917
ECCENTRICITY   = .0009334
INCLINATION    = 71.0557
RA_OF_ASC_NODE = 33.0967
ARG_OF_PERICENTER = 202.9711
MEAN_ANOMALY   = 157.0995

EPHEMERIS_TYPE = 0
CLASSIFICATION_TYPE = U
NORAD_CAT_ID   = 23087
ELEMENT_SET_NO = 999
REV_AT_EPOCH   = 63007
BSTAR          = .1296E-3
MEAN_MOTION_DOT = .201E-5
MEAN_MOTION_DDOT = 0

CCSDS_OMM_VERS = 2.0
CREATION_DATE  = 
ORIGINATOR     = 

OBJECT_NAME    = SL-16 R/B
OBJECT_ID      = 1994-074B
CENTER_NAME    = EARTH
REF_FRAME      = TEME
TIME_SYSTEM    = UTC
MEAN_ELEMENT_THEORY = SGP/SGP4

EPOCH          = 2025-11-25T02:05:35.234304
MEAN_MOTION    = 14.79259994
ECCENTRICITY   = .0006208
INCLINATION    = 97.7224
RA_OF_ASC_NODE = 359.0919
ARG_OF_PERICENTER = 189.5477
MEAN_ANOMALY   = 227.8757

EPHEMERIS_TYPE = 0
CLASSIFICATION_TYPE = U
NORAD_CAT_ID   = 23343
ELEMENT_SET_NO = 999
REV_AT_EPOCH   = 67178
BSTAR          = .89863E-4
MEAN_MOTION_DOT = .619E-5
MEAN_MOTION_DDOT = 0

CCSDS_OMM_VERS = 2.0
CREATION_DATE  = 
ORIGINATOR     = 

OBJECT_NAME    = SL-16 R/B
OBJECT_ID      = 1994-077B
CENTER_NAME    = EARTH
REF_FRAME      = TEME
TIME_SYSTEM    = UTC
MEAN_ELEMENT_THEORY = SGP/SGP4

EPOCH          = 2025-11-25T09:29:22.586784
MEAN_MOTION    = 14.15547349
ECCENTRICITY   = .0004536
INCLINATION    = 70.9821
RA_OF_ASC_NODE = 211.9007
ARG_OF_PERICENTER = 298.3190
MEAN_ANOMALY   = 61.7475

EPHEMERIS_TYPE = 0
CLASSIFICATION_TYPE = U
NORAD_CAT_ID   = 23405
ELEMENT_SET_NO = 999
REV_AT_EPOCH   = 60147
BSTAR          = -.84446E-4
MEAN_MOTION_DOT = -.213E-5
MEAN_MOTION_DDOT = 0

CCSDS_OMM_VERS = 2.0
CREATION_DATE  = 
ORIGINATOR     = 

OBJECT_NAME    = ARIANE 40+ R/B
OBJECT_ID      = 1995-021B
CENTER_NAME    = EARTH
REF_FRAME      = TEME
TIME_SYSTEM    = UTC
MEAN_ELEMENT_THEORY = SGP/SGP4

EPOCH          = 2025-11-25T10:06:46.311840
MEAN_MOTION    = 14.39675794
ECCENTRICITY   = .0007924
INCLINATION    = 98.4671
RA_OF_ASC_NODE = 37.2178
ARG_OF_PERICENTER = 95.0901
MEAN_ANOMALY   = 275.4712

EPHEMERIS_TYPE = 0
CLASSIFICATION_TYPE = U
NORAD_CAT_ID   = 23561
ELEMENT_SET_NO = 999
REV_AT_EPOCH   = 60424
BSTAR          = .14516E-3
MEAN_MOTION_DOT = .411E-5
MEAN_MOTION_DDOT = 0

CCSDS_OMM_VERS = 2.0
CREATION_DATE  = 
ORIGINATOR     = 

OBJECT_NAME    = SL-16 R/B
OBJECT_ID      = 1995-058B
CENTER_NAME    = EARTH
REF_FRAME      = TEME
TIME_SYSTEM    = UTC
MEAN_ELEMENT_THEORY = SGP/SGP4

EPOCH          = 2025-11-25T11:13:46.634304
MEAN_MOTION    = 14.15474645
ECCENTRICITY   = .0014912
INCLINATION    = 71.0224
RA_OF_ASC_NODE = 39.0662
ARG_OF_PERICENTER = 277.1226
MEAN_ANOMALY   = 82.8201

EPHEMERIS_TYPE = 0
CLASSIFICATION_TYPE = U
NORAD_CAT_ID   = 23705
ELEMENT_SET_NO = 999
REV_AT_EPOCH   = 55310
BSTAR          = .17563E-4
MEAN_MOTION_DOT = -.13E-6
MEAN_MOTION_DDOT = 0

CCSDS_OMM_VERS = 2.0
CREATION_DATE  = 
ORIGINATOR     = 

OBJECT_NAME    = SL-16 R/B
OBJECT_ID      = 1996-051B
CENTER_NAME    = EARTH
REF_FRAME      = TEME
TIME_SYSTEM    = UTC
MEAN_ELEMENT_THEORY = SGP/SGP4

EPOCH          = 2025-11-25T11:47:27.557088
MEAN_MOTION    = 14.12394187
ECCENTRICITY   = .0018825
INCLINATION    = 70.7607
RA_OF_ASC_NODE = 35.7932
ARG_OF_PERICENTER = 282.7666
MEAN_ANOMALY   = 77.1349

EPHEMERIS_TYPE = 0
CLASSIFICATION_TYPE = U
NORAD_CAT_ID   = 24298
ELEMENT_SET_NO = 999
REV_AT_EPOCH   = 50693
BSTAR          = .20113E-4
MEAN_MOTION_DOT = -.12E-6
MEAN_MOTION_DDOT = 0

