COSMOS 2228             
1 22286U 92094A   25329.50807156  .00003183  00000+0  27659-3 0  9993
2 22286  82.5177 337.0227 0016472 295.1073  64.8440 14.96611384760476
SL-16 R/B               
1 22566U 93016B   25329.45969569  .00000090  00000+0  70686-4 0  9993
2 22566  71.0087  74.0944 0008278 129.9361 230.2491 14.15288698687420
COSMOS 2242             
1 22626U 93024A   25329.37957497  .00002806  00000+0  24747-3 0  9990
2 22626  82.5199   6.4367 0014941 298.6202  61.3516 14.96001896764797
SL-16 R/B               
1 22803U 93059B   25329.43949881 -.00000148  00000+0 -49310-4 0  9993
2 22803  70.9897 230.9658 0016961   1.4142 358.7027 14.17208034664766
ARIANE 40 R/B           
1 22830U 93061H   25329.43912652  .00000304  00000+0  12757-3 0  9998
2 22830  98.5096  35.2823 0009922 228.5160 131.5173 14.32784926679170
COSMOS 2278             
1 23087U 94023A   25329.49115836  .00000201  00000+0  12960-3 0  9999
2 23087  71.0557  33.0967 0009334 202.9711 157.0995 14.14348917630070
SL-16 R/B               
1 23343U 94074B   25329.08721336  .00000619  00000+0  89863-4 0  9993
2 23343  97.7224 359.0919 0006207 189.5477 227.8757 14.79259994671786
SL-16 R/B               
1 23405U 94077B   25329.39540031 -.00000213  00000+0 -84446-4 0  9994
2 23405  70.9821 211.9007 0004536 298.3190  61.7475 14.15547349601474
ARIANE 40+ R/B          
1 23561U 95021B   25329.42136935  .00000411  00000+0  14516-3 0  9993
2 23561  98.4671  37.2178 0007924  95.0901 275.4712 14.39675794604247
SL-16 R/B               
1 23705U 95058B   25329.46790086 -.00000013  00000+0  17563-4 0  9995
2 23705  71.0224  39.0662 0014912 277.1226  82.8201 14.15474645553101
SL-16 R/B               
1 24298U 96051B   25329.49129117 -.00000012  00000+0  20113-4 0  9995
2 24298  70.7607  35.7932 0018825 282.7666  77.1349 14.12394187506938
